{
    "links": {
        "self": "http://www.neowsapp.com/rest/v1/neo/54017034?api_key=iIulBulltgU6a56xZRHN4H3l9WmuAYTsLGpBGhQ2"
    },
    "id": "54017034",
    "neo_reference_id": "54017034",
    "name": "(2020 JZ1)",
    "designation": "2020 JZ1",
    "nasa_jpl_url": "http://ssd.jpl.nasa.gov/sbdb.cgi?sstr=54017034",
    "absolute_magnitude_h": 25.787,
    "estimated_diameter": {
        "kilometers": {
            "estimated_diameter_min": 0.0184992864,
            "estimated_diameter_max": 0.041365662
        },
        "meters": {
            "estimated_diameter_min": 18.4992864237,
            "estimated_diameter_max": 41.3656619786
        },
        "miles": {
            "estimated_diameter_min": 0.0114949201,
            "estimated_diameter_max": 0.0257034227
        },
        "feet": {
            "estimated_diameter_min": 60.6931988703,
            "estimated_diameter_max": 135.7141184459
        }
    },
    "is_potentially_hazardous_asteroid": false,
    "close_approach_data": [
        {
            "close_approach_date": "2012-05-07",
            "close_approach_date_full": "2012-May-07 14:42",
            "epoch_date_close_approach": 1336401720000,
            "relative_velocity": {
                "kilometers_per_second": "9.4922906331",
                "kilometers_per_hour": "34172.2462792638",
                "miles_per_hour": "21233.3049172459"
            },
            "miss_distance": {
                "astronomical": "0.1285268551",
                "lunar": "49.9969466339",
                "kilometers": "19227343.760758637",
                "miles": "11947317.4084657106"
            },
            "orbiting_body": "Earth"
        },
        {
            "close_approach_date": "2020-05-24",
            "close_approach_date_full": "2020-May-24 17:52",
            "epoch_date_close_approach": 1590342720000,
            "relative_velocity": {
                "kilometers_per_second": "5.6570791749",
                "kilometers_per_hour": "20365.485029613",
                "miles_per_hour": "12654.320406317"
            },
            "miss_distance": {
                "astronomical": "0.0298259713",
                "lunar": "11.6023028357",
                "kilometers": "4461901.777161131",
                "miles": "2772497.2019243678"
            },
            "orbiting_body": "Earth"
        }
    ],
    "orbital_data": {
        "orbit_id": "4",
        "orbit_determination_date": "2020-05-27 07:00:37",
        "first_observation_date": "2020-05-11",
        "last_observation_date": "2020-05-26",
        "data_arc_in_days": 15,
        "observations_used": 24,
        "orbit_uncertainty": "7",
        "minimum_orbit_intersection": ".0280704",
        "jupiter_tisserand_invariant": "4.776",
        "epoch_osculation": "2459000.5",
        "eccentricity": ".2786461844357372",
        "semi_major_axis": "1.37195906542085",
        "inclination": "4.586499845402802",
        "ascending_node_longitude": "43.99724907291849",
        "orbital_period": "586.9622318457772",
        "perihelion_distance": ".9896679066393104",
        "perihelion_argument": "230.6509334474039",
        "aphelion_distance": "1.75425022420239",
        "perihelion_time": "2459022.554149772794",
        "mean_anomaly": "346.4735863954326",
        "mean_motion": ".6133273666824087",
        "equinox": "J2000",
        "orbit_class": {
            "orbit_class_type": "APO",
            "orbit_class_description": "Near-Earth asteroid orbits which cross the Earth’s orbit similar to that of 1862 Apollo",
            "orbit_class_range": "a (semi-major axis) > 1.0 AU; q (perihelion) < 1.017 AU"
        }
    },
    "is_sentry_object": false
}